{
  "type": "FeatureCollection",
  "features": [
    {
      "type": "Feature",
      "properties": {
        "norad_id": 66830,
        "name": "STARLINK-35881",
        "group": "last-30-days",
        "lat": 7.564091694035849,
        "lon": -158.03841034089479,
        "alt_km": 330.2502644147353,
        "timestamp": "2025-12-12T14:39:16.772891+00:00",
        "meta_object_name": "STARLINK-35881",
        "meta_object_id": "2025-280K",
        "meta_epoch": "2025-12-12T06:00:00.999648",
        "meta_mean_motion": 15.82018812,
        "meta_eccentricity": 0.00035763,
        "meta_inclination": 69.992,
        "meta_ra_of_asc_node": 200.2189,
        "meta_arg_of_pericenter": 279.0835,
        "meta_mean_anomaly": 196.8924,
        "meta_ephemeris_type": 0,
        "meta_classification_type": "U",
        "meta_norad_cat_id": 66830,
        "meta_element_set_no": 999,
        "meta_rev_at_epoch": 282,
        "meta_bstar": -0.0099085788,
        "meta_mean_motion_dot": -0.01748802,
        "meta_mean_motion_ddot": 0,
        "tle_line1": "1 66830U 25280K   25346.25001157 -.01748802  00000+0 -99086-2 0  9996",
        "tle_line2": "2 66830  69.9920 200.2189 0003576 279.0835 196.8924 15.82018812  2824"
      },
      "geometry": {
        "type": "Point",
        "coordinates": [
          -158.03841034089479,
          7.564091694035849
        ]
      }
    },
    {
      "type": "Feature",
      "properties": {
        "norad_id": 66831,
        "name": "STARLINK-35788",
        "group": "last-30-days",
        "lat": 9.255369876107048,
        "lon": -157.40912485501454,
        "alt_km": 330.2079730954347,
        "timestamp": "2025-12-12T14:39:16.772901+00:00",
        "meta_object_name": "STARLINK-35788",
        "meta_object_id": "2025-280L",
        "meta_epoch": "2025-12-12T06:00:00.999648",
        "meta_mean_motion": 15.82046776,
        "meta_eccentricity": 0.00036531,
        "meta_inclination": 69.9928,
        "meta_ra_of_asc_node": 200.2176,
        "meta_arg_of_pericenter": 274.6011,
        "meta_mean_anomaly": 203.142,
        "meta_ephemeris_type": 0,
        "meta_classification_type": "U",
        "meta_norad_cat_id": 66831,
        "meta_element_set_no": 999,
        "meta_rev_at_epoch": 282,
        "meta_bstar": -0.0099224761,
        "meta_mean_motion_dot": -0.0175298,
        "meta_mean_motion_ddot": 0,
        "tle_line1": "1 66831U 25280L   25346.25001157 -.01752980  00000+0 -99225-2 0  9994",
        "tle_line2": "2 66831  69.9928 200.2176 0003653 274.6011 203.1420 15.82046776  2825"
      },
      "geometry": {
        "type": "Point",
        "coordinates": [
          -157.40912485501454,
          9.255369876107048
        ]
      }
    },
    {
      "type": "Feature",
      "properties": {
        "norad_id": 66832,
        "name": "STARLINK-35768",
        "group": "last-30-days",
        "lat": 10.91209596744717,
        "lon": -156.78754527815877,
        "alt_km": 329.76082670031246,
        "timestamp": "2025-12-12T14:39:16.772910+00:00",
        "meta_object_name": "STARLINK-35768",
        "meta_object_id": "2025-280M",
        "meta_epoch": "2025-12-12T06:00:00.999648",
        "meta_mean_motion": 15.82044675,
        "meta_eccentricity": 0.00035952,
        "meta_inclination": 69.9924,
        "meta_ra_of_asc_node": 200.215,
        "meta_arg_of_pericenter": 278.9289,
        "meta_mean_anomaly": 200.5641,
        "meta_ephemeris_type": 0,
        "meta_classification_type": "U",
        "meta_norad_cat_id": 66832,
        "meta_element_set_no": 999,
        "meta_rev_at_epoch": 282,
        "meta_bstar": -0.0097129418,
        "meta_mean_motion_dot": -0.01720894,
        "meta_mean_motion_ddot": 0,
        "tle_line1": "1 66832U 25280M   25346.25001157 -.01720894  00000+0 -97129-2 0  9995",
        "tle_line2": "2 66832  69.9924 200.2150 0003595 278.9289 200.5641 15.82044675  2825"
      },
      "geometry": {
        "type": "Point",
        "coordinates": [
          -156.78754527815877,
          10.91209596744717
        ]
      }
    },
    {
      "type": "Feature",
      "properties": {
        "norad_id": 66833,
        "name": "STARLINK-35858",
        "group": "last-30-days",
        "lat": 12.906892932910267,
        "lon": -156.02812765232792,
        "alt_km": 329.7443827612842,
        "timestamp": "2025-12-12T14:39:16.772920+00:00",
        "meta_object_name": "STARLINK-35858",
        "meta_object_id": "2025-280N",
        "meta_epoch": "2025-12-12T06:00:00.999648",
        "meta_mean_motion": 15.82079134,
        "meta_eccentricity": 0.00036831,
        "meta_inclination": 69.9925,
        "meta_ra_of_asc_node": 200.2129,
        "meta_arg_of_pericenter": 274.9407,
        "meta_mean_anomaly": 206.6612,
        "meta_ephemeris_type": 0,
        "meta_classification_type": "U",
        "meta_norad_cat_id": 66833,
        "meta_element_set_no": 999,
        "meta_rev_at_epoch": 282,
        "meta_bstar": -0.0099823385,
        "meta_mean_motion_dot": -0.01764385,
        "meta_mean_motion_ddot": 0,
        "tle_line1": "1 66833U 25280N   25346.25001157 -.01764385  00000+0 -99823-2 0  9992",
        "tle_line2": "2 66833  69.9925 200.2129 0003683 274.9407 206.6612 15.82079134  2822"
      },
      "geometry": {
        "type": "Point",
        "coordinates": [
          -156.02812765232792,
          12.906892932910267
        ]
      }
    },
    {
      "type": "Feature",
      "properties": {
        "norad_id": 66834,
        "name": "STARLINK-35840",
        "group": "last-30-days",
        "lat": 14.60202412128477,
        "lon": -155.37357058666595,
        "alt_km": 329.606471722268,
        "timestamp": "2025-12-12T14:39:16.772929+00:00",
        "meta_object_name": "STARLINK-35840",
        "meta_object_id": "2025-280P",
        "meta_epoch": "2025-12-12T06:00:00.999648",
        "meta_mean_motion": 15.82106977,
        "meta_eccentricity": 0.00036848,
        "meta_inclination": 69.992,
        "meta_ra_of_asc_node": 200.21,
        "meta_arg_of_pericenter": 272.2142,
        "meta_mean_anomaly": 211.1641,
        "meta_ephemeris_type": 0,
        "meta_classification_type": "U",
        "meta_norad_cat_id": 66834,
        "meta_element_set_no": 999,
        "meta_rev_at_epoch": 282,
        "meta_bstar": -0.0099887296,
        "meta_mean_motion_dot": -0.01767341,
        "meta_mean_motion_ddot": 0,
        "tle_line1": "1 66834U 25280P   25346.25001157 -.01767341  00000+0 -99887-2 0  9998",
        "tle_line2": "2 66834  69.9920 200.2100 0003684 272.2142 211.1641 15.82106977  2824"
      },
      "geometry": {
        "type": "Point",
        "coordinates": [
          -155.37357058666595,
          14.60202412128477
        ]
      }
    },
    {
      "type": "Feature",
      "properties": {
        "norad_id": 66835,
        "name": "STARLINK-35890",
        "group": "last-30-days",
        "lat": 16.44801119012622,
        "lon": -154.6472244477585,
        "alt_km": 329.2552688364385,
        "timestamp": "2025-12-12T14:39:16.772938+00:00",
        "meta_object_name": "STARLINK-35890",
        "meta_object_id": "2025-280Q",
        "meta_epoch": "2025-12-12T06:00:00.999648",
        "meta_mean_motion": 15.82121703,
        "meta_eccentricity": 0.00037956,
        "meta_inclination": 69.9918,
        "meta_ra_of_asc_node": 200.2079,
        "meta_arg_of_pericenter": 275.3277,
        "meta_mean_anomaly": 210.0075,
        "meta_ephemeris_type": 0,
        "meta_classification_type": "U",
        "meta_norad_cat_id": 66835,
        "meta_element_set_no": 999,
        "meta_rev_at_epoch": 282,
        "meta_bstar": -0.010026537,
        "meta_mean_motion_dot": -0.01812628,
        "meta_mean_motion_ddot": 0,
        "tle_line1": "1 66835U 25280Q   25346.25001157 -.01812628  00000+0 -10027-1 0  9996",
        "tle_line2": "2 66835  69.9918 200.2079 0003795 275.3277 210.0075 15.82121703  2826"
      },
      "geometry": {
        "type": "Point",
        "coordinates": [
          -154.6472244477585,
          16.44801119012622
        ]
      }
    },
    {
      "type": "Feature",
      "properties": {
        "norad_id": 66836,
        "name": "STARLINK-35838",
        "group": "last-30-days",
        "lat": 18.354343041081727,
        "lon": -153.88187863780377,
        "alt_km": 328.9854197104478,
        "timestamp": "2025-12-12T14:39:16.772948+00:00",
        "meta_object_name": "STARLINK-35838",
        "meta_object_id": "2025-280R",
        "meta_epoch": "2025-12-12T06:00:00.999648",
        "meta_mean_motion": 15.82132321,
        "meta_eccentricity": 0.00037548,
        "meta_inclination": 69.9917,
        "meta_ra_of_asc_node": 200.2052,
        "meta_arg_of_pericenter": 276.1225,
        "meta_mean_anomaly": 211.2446,
        "meta_ephemeris_type": 0,
        "meta_classification_type": "U",
        "meta_norad_cat_id": 66836,
        "meta_element_set_no": 999,
        "meta_rev_at_epoch": 282,
        "meta_bstar": -0.010069957,
        "meta_mean_motion_dot": -0.01820282,
        "meta_mean_motion_ddot": 0,
        "tle_line1": "1 66836U 25280R   25346.25001157 -.01820282  00000+0 -10070-1 0  9990",
        "tle_line2": "2 66836  69.9917 200.2052 0003754 276.1225 211.2446 15.82132321  2827"
      },
      "geometry": {
        "type": "Point",
        "coordinates": [
          -153.88187863780377,
          18.354343041081727
        ]
      }
    }
  ]
}